#dV2023  1 21 10  0  0.00000000    1682       CTS   FIT  GFZ
## 2245 554400.00000000    30.00000000 59965 0.4166666666667
+    1   L65  0  0  0  0  0  0  0  0  0  0  0  0  0  0  0  0
+          0  0  0  0  0  0  0  0  0  0  0  0  0  0  0  0  0
+          0  0  0  0  0  0  0  0  0  0  0  0  0  0  0  0  0
+          0  0  0  0  0  0  0  0  0  0  0  0  0  0  0  0  0
+          0  0  0  0  0  0  0  0  0  0  0  0  0  0  0  0  0
++         0  0  0  0  0  0  0  0  0  0  0  0  0  0  0  0  0
++         0  0  0  0  0  0  0  0  0  0  0  0  0  0  0  0  0
++         0  0  0  0  0  0  0  0  0  0  0  0  0  0  0  0  0
++         0  0  0  0  0  0  0  0  0  0  0  0  0  0  0  0  0
++         0  0  0  0  0  0  0  0  0  0  0  0  0  0  0  0  0
%c L  cc GPS ccc cccc cccc cccc cccc ccccc ccccc ccccc ccccc
%c cc cc ccc ccc cccc cccc cccc cccc ccccc ccccc ccccc ccccc
%f  0.0000000  0.000000000  0.00000000000  0.000000000000000
%f  0.0000000  0.000000000  0.00000000000  0.000000000000000
%i    0    0    0    0      0      0      0      0         0
%i    0    0    0    0      0      0      0      0         0
/* CCCCCCCCCCCCCCCCCCCCCCCCCCCCCCCCCCCCCCCCCCCCCCCCCCCCCCCCCCCCCCCCCCCCCCCCCCCCC
/* C                             GFZ RSO-ORBIT                                 C
/* C DOI: https://doi.org/10.5880/GFZ_ORBIT/RSO/L65_G_v02                      C
/* C                                                                           C
/* C DORIS        RMS: not applicable                                          C
/* C GNSS-E Code  RMS: not applicable                                          C
/* C GNSS-E Phase RMS: not applicable                                          C
/* C GNSS-G Code  RMS:  55.500 [cm]   Obs.acc.:     14742 Obs.eli.:      1114  C
/* C GNSS-G Phase RMS:   4.945 [mm]   Obs.acc.:     14742 Obs.eli.:      1114  C
/* C SLR          RMS: not applicable                                          C
/* C                                                                           C
/* CCCCCCCCCCCCCCCCCCCCCCCCCCCCCCCCCCCCCCCCCCCCCCCCCCCCCCCCCCCCCCCCCCCCCCCCCCCCC
*  2023  1 21 12 33  0.00000000
PL65  -2720.291731  -4890.319187  -3981.682879   1866.696061
VL65  19340.031123  39766.110101 -62068.531248 999999.999999
*  2023  1 21 12 33 30.00000000
PL65  -2660.519632  -4768.479285  -4165.645750   1867.163918
VL65  20505.568114  41452.116136 -60562.104365 999999.999999
*  2023  1 21 12 34  0.00000000
PL65  -2597.273869  -4641.657618  -4344.988702   1867.631763
VL65  21655.558565  43086.995824 -58988.876374 999999.999999
*  2023  1 21 12 34 30.00000000
PL65  -2530.603314  -4510.010152  -4519.513987   1868.099592
VL65  22788.516393  44669.035832 -57350.629580 999999.999999
*  2023  1 21 12 35  0.00000000
PL65  -2460.561277  -4373.697891  -4689.029310   1868.567466
VL65  23902.968706  46196.590492 -55649.215985 999999.999999
*  2023  1 21 12 35 30.00000000
PL65  -2387.205465  -4232.886673  -4853.348034   1869.035293
VL65  24997.457532  47668.083082 -53886.555358 999999.999999
*  2023  1 21 12 36  0.00000000
PL65  -2310.597937  -4087.746963  -5012.289379   1869.503114
VL65  26070.541702  49082.007508 -52064.633162 999999.999999
*  2023  1 21 12 36 30.00000000
PL65  -2230.805043  -3938.453633  -5165.678618   1869.970891
VL65  27120.798777  50436.929925 -50185.498009 999999.999999
*  2023  1 21 12 37  0.00000000
PL65  -2147.897374  -3785.185748  -5313.347261   1870.438684
VL65  28146.826852  51731.489939 -48251.259046 999999.999999
*  2023  1 21 12 37 30.00000000
PL65  -2061.949691  -3628.126344  -5455.133233   1870.906536
VL65  29147.246321  52964.401690 -46264.083491 999999.999999
*  2023  1 21 12 38  0.00000000
PL65  -1973.040861  -3467.462199  -5590.881046   1871.374519
VL65  30120.701581  54134.454846 -44226.194166 999999.999999
*  2023  1 21 12 38 30.00000000
PL65  -1881.253777  -3303.383610  -5720.441959   1871.842292
VL65  31065.862934  55240.515832 -42139.867358 999999.999999
*  2023  1 21 12 39  0.00000000
PL65  -1786.675280  -3136.084154  -5843.674138   1872.310173
VL65  31981.428907  56281.529730 -40007.429771 999999.999999
*  2023  1 21 12 39 30.00000000
PL65  -1689.396071  -2965.760457  -5960.442799   1872.778048
VL65  32866.127985  57256.520972 -37831.254402 999999.999999
*  2023  1 21 12 40  0.00000000
PL65  -1589.510620  -2792.611950  -6070.620342   1873.245878
VL65  33718.719523  58164.593206 -35613.757502 999999.999999
*  2023  1 21 12 40 30.00000000
PL65  -1487.117071  -2616.840636  -6174.086478   1873.713714
VL65  34537.994715  59004.929619 -33357.395996 999999.999999
*  2023  1 21 12 41  0.00000000
PL65  -1382.317145  -2438.650848  -6270.728347   1874.181575
VL65  35322.777825  59776.792912 -31064.664933 999999.999999
*  2023  1 21 12 41 30.00000000
PL65  -1275.216039  -2258.249012  -6360.440628   1874.649361
VL65  36071.927781  60479.525394 -28738.095392 999999.999999
*  2023  1 21 12 42  0.00000000
PL65  -1165.922318  -2075.843407  -6443.125644   1875.117049
VL65  36784.339985  61112.549677 -26380.252032 999999.999999
*  2023  1 21 12 42 30.00000000
PL65  -1054.547805  -1891.643921  -6518.693460   1875.584578
VL65  37458.947648  61675.369164 -23993.729443 999999.999999
*  2023  1 21 12 43  0.00000000
PL65   -941.207467  -1705.861816  -6587.061962   1876.052207
VL65  38094.721858  62167.567138 -21581.149166 999999.999999
*  2023  1 21 12 43 30.00000000
PL65   -826.019298  -1518.709480  -6648.156944   1876.519978
VL65  38690.672605  62588.806170 -19145.158834 999999.999999
*  2023  1 21 12 44  0.00000000
PL65   -709.104204  -1330.400198  -6701.912177   1876.987775
VL65  39245.851619  62938.829066 -16688.430725 999999.999999
*  2023  1 21 12 44 30.00000000
PL65   -590.585866  -1141.147900  -6748.269483   1877.455602
VL65  39759.354885  63217.460318 -14213.658002 999999.999999
*  2023  1 21 12 45  0.00000000
PL65   -470.590611   -951.166924  -6787.178789   1877.923672
VL65  40230.323287  63424.606336 -11723.549496 999999.999999
*  2023  1 21 12 45 30.00000000
PL65   -349.247277   -760.671763  -6818.598165   1878.391429
VL65  40657.942150  63560.253634  -9220.826116 999999.999999
*  2023  1 21 12 46  0.00000000
PL65   -226.687079   -569.876838  -6842.493862   1878.859296
VL65  41041.441885  63624.467053  -6708.219554 999999.999999
*  2023  1 21 12 46 30.00000000
PL65   -103.043469   -378.996255  -6858.840341   1879.327164
VL65  41380.099936  63617.388747  -4188.471574 999999.999999
*  2023  1 21 12 47  0.00000000
PL65     21.548004   -188.243580  -6867.620300   1879.795010
VL65  41673.243475  63539.239068  -1664.332331 999999.999999
*  2023  1 21 12 47 30.00000000
PL65    146.949854      2.168406  -6868.824696   1880.262947
VL65  41920.250938  63390.318520    861.445232 999999.999999
*  2023  1 21 12 48  0.00000000
PL65    273.022800    192.027936  -6862.452740   1880.730973
VL65  42120.550109  63171.005381   3386.111468 999999.999999
*  2023  1 21 12 48 30.00000000
PL65    399.625921    381.124495  -6848.511886   1881.199410
VL65  42273.617066  62881.751624   5906.919258 999999.999999
*  2023  1 21 12 49  0.00000000
PL65    526.616796    569.249029  -6827.017829   1881.667904
VL65  42378.979331  62523.083125   8421.122759 999999.999999
*  2023  1 21 12 49 30.00000000
PL65    653.851671    756.194177  -6797.994495   1882.136365
VL65  42436.218313  62095.600697  10925.980729 999999.999999
*  2023  1 21 12 50  0.00000000
PL65    781.185617    941.754493  -6761.474024   1882.604472
VL65  42444.970432  61599.980629  13418.759912 999999.999999
*  2023  1 21 12 50 30.00000000
PL65    908.472698   1125.726673  -6717.496736   1883.072644
VL65  42404.928160  61036.975106  15896.739854 999999.999999
*  2023  1 21 12 51  0.00000000
PL65   1035.566137   1307.909782  -6666.111088   1883.540483
VL65  42315.838980  60407.410033  18357.217432 999999.999999
*  2023  1 21 12 51 30.00000000
PL65   1162.318485   1488.105469  -6607.373618   1884.008484
VL65  42177.504883  59712.182933  20797.508348 999999.999999
*  2023  1 21 12 52  0.00000000
PL65   1288.581777   1666.118183  -6541.348888   1884.476352
VL65  41989.783326  58952.261586  23214.949213 999999.999999
*  2023  1 21 12 52 30.00000000
PL65   1414.207710   1841.755378  -6468.109415   1884.944160
VL65  41752.588394  58128.681826  25606.899149 999999.999999
*  2023  1 21 12 53  0.00000000
PL65   1539.047805   2014.827716  -6387.735603   1885.412070
VL65  41465.893065  57242.547091  27970.740753 999999.999999
*  2023  1 21 12 53 30.00000000
PL65   1662.953599   2185.149275  -6300.315670   1885.879895
VL65  41129.730743  56295.029290  30303.884195 999999.999999
*  2023  1 21 12 54  0.00000000
PL65   1785.776814   2352.537746  -6205.945554   1886.347803
VL65  40744.194307  55287.367763  32603.772858 999999.999999
*  2023  1 21 12 54 30.00000000
PL65   1907.369539   2516.814639  -6104.728808   1886.815657
VL65  40309.434424  54220.865953  34867.887199 999999.999999
*  2023  1 21 12 55  0.00000000
PL65   2027.584403   2677.805464  -5996.776488   1887.283504
VL65  39825.659026  53096.888142  37093.745703 999999.999999
*  2023  1 21 12 55 30.00000000
PL65   2146.274742   2835.339914  -5882.207034   1887.751555
VL65  39293.134181  51916.858349  39278.905227 999999.999999
*  2023  1 21 12 56  0.00000000
PL65   2263.294782   2989.252044  -5761.146159   1888.219955
VL65  38712.185041  50682.259963  41420.963219 999999.999999
*  2023  1 21 12 56 30.00000000
PL65   2378.499810   3139.380445  -5633.726717   1888.688203
VL65  38083.195948  49394.634461  43517.560534 999999.999999
*  2023  1 21 12 57  0.00000000
PL65   2491.746359   3285.568420  -5500.088572   1889.156363
VL65  37406.610620  48055.580243  45566.383693 999999.999999
*  2023  1 21 12 57 30.00000000
PL65   2602.892380   3427.664150  -5360.378455   1889.624577
VL65  36682.932817  46666.751725  47565.168067 999999.999999
*  2023  1 21 12 58  0.00000000
PL65   2711.797425   3565.520862  -5214.749816   1890.092707
VL65  35912.726389  45229.856915  49511.701984 999999.999999
EOF
